{
  "norad_id": 58493,
  "name": "STARLINK-30985",
  "history": [
    {
      "epoch": "2026-03-28T16:23:29.305248Z",
      "apogee_km": 484.2793451319276,
      "perigee_km": 481.8156310059521,
      "latitude_deg": 3.330304271745775e-05,
      "longitude_deg": -115.81637943463708,
      "height_km": 483.0527308146689,
      "semi_major_axis_km": 6861.18448806894,
      "eccentricity": 0.00017954,
      "inclination_deg": 43.004,
      "raan_deg": 316.1556,
      "arg_perigee_deg": 259.3415,
      "mean_anomaly_deg": 100.7235,
      "mean_motion_rev_day": 15.27580537
    },
    {
      "epoch": "2026-03-29T00:14:16.222272Z",
      "apogee_km": 484.23265838323823,
      "perigee_km": 481.85731717906856,
      "latitude_deg": 9.750388670657438e-06,
      "longitude_deg": 124.32076893806465,
      "height_km": 482.9696388583711,
      "semi_major_axis_km": 6861.181987781153,
      "eccentricity": 0.0001731,
      "inclination_deg": 43.0038,
      "raan_deg": 314.3105,
      "arg_perigee_deg": 262.876,
      "mean_anomaly_deg": 97.1895,
      "mean_motion_rev_day": 15.27581372
    },
    {
      "epoch": "2026-03-29T23:46:36.809184Z",
      "apogee_km": 484.4441829260795,
      "perigee_km": 481.6640282900871,
      "latitude_deg": -1.2735335192686438e-05,
      "longitude_deg": 124.72835214863652,
      "height_km": 483.0407850136153,
      "semi_major_axis_km": 6861.1911056080835,
      "eccentricity": 0.0002026,
      "inclination_deg": 43.0047,
      "raan_deg": 308.7706,
      "arg_perigee_deg": 261.3524,
      "mean_anomaly_deg": 98.7098,
      "mean_motion_rev_day": 15.27578327
    },
    {
      "epoch": "2026-03-29T23:46:36.810048Z",
      "apogee_km": 484.44438876181266,
      "perigee_km": 481.6638224543549,
      "latitude_deg": -1.0403839479827876e-05,
      "longitude_deg": 124.7283510247785,
      "height_km": 483.04081595816285,
      "semi_major_axis_km": 6861.1911056080835,
      "eccentricity": 0.00020263,
      "inclination_deg": 43.0047,
      "raan_deg": 308.7706,
      "arg_perigee_deg": 261.3524,
      "mean_anomaly_deg": 98.7098,
      "mean_motion_rev_day": 15.27578327
    },
    {
      "epoch": "2026-03-30T07:37:23.664000Z",
      "apogee_km": 484.45784947752327,
      "perigee_km": 481.64325312022993,
      "latitude_deg": 6.250506842406252e-06,
      "longitude_deg": 4.864506279301563,
      "height_km": 483.0220705735704,
      "semi_major_axis_km": 6861.187551298876,
      "eccentricity": 0.00020511,
      "inclination_deg": 43.0048,
      "raan_deg": 306.9242,
      "arg_perigee_deg": 262.084,
      "mean_anomaly_deg": 97.9779,
      "mean_motion_rev_day": 15.27579514
    },
    {
      "epoch": "2026-03-30T21:44:48.385248Z",
      "apogee_km": 484.34587894129254,
      "perigee_km": 481.76181724408343,
      "latitude_deg": 3.0167582755541395e-05,
      "longitude_deg": 149.10869434448387,
      "height_km": 483.0977241203847,
      "semi_major_axis_km": 6861.190848092688,
      "eccentricity": 0.00018831,
      "inclination_deg": 43.0041,
      "raan_deg": 303.6014,
      "arg_perigee_deg": 258.1008,
      "mean_anomaly_deg": 101.9633,
      "mean_motion_rev_day": 15.27578413
    },
    {
      "epoch": "2026-03-31T13:26:23.879904Z",
      "apogee_km": 484.53597138068835,
      "perigee_km": 481.75728873618664,
      "latitude_deg": 9.069393165538423e-06,
      "longitude_deg": -90.62671819133155,
      "height_km": 483.24311088301823,
      "semi_major_axis_km": 6861.283630058438,
      "eccentricity": 0.00020249,
      "inclination_deg": 43.0041,
      "raan_deg": 299.9084,
      "arg_perigee_deg": 256.7298,
      "mean_anomaly_deg": 103.3328,
      "mean_motion_rev_day": 15.27547428
    },
    {
      "epoch": "2026-04-01T12:58:44.433120Z",
      "apogee_km": 484.4287805459544,
      "perigee_km": 481.8118969969464,
      "latitude_deg": -2.950881802204419e-05,
      "longitude_deg": -90.22091056977685,
      "height_km": 483.4340474713775,
      "semi_major_axis_km": 6861.25733877145,
      "eccentricity": 0.0001907,
      "inclination_deg": 43.004,
      "raan_deg": 294.3666,
      "arg_perigee_deg": 245.8001,
      "mean_anomaly_deg": 114.2651,
      "mean_motion_rev_day": 15.27556208
    },
    {
      "epoch": "2026-04-02T14:05:13.526304Z",
      "apogee_km": 484.22570976438146,
      "perigee_km": 481.86683495534453,
      "latitude_deg": -4.325901558229054e-05,
      "longitude_deg": -113.78169811951649,
      "height_km": 483.21007121142304,
      "semi_major_axis_km": 6861.183272359863,
      "eccentricity": 0.0001719,
      "inclination_deg": 43.0042,
      "raan_deg": 288.4582,
      "arg_perigee_deg": 250.871,
      "mean_anomaly_deg": 109.1955,
      "mean_motion_rev_day": 15.27580943
    }
  ]
}